[{"OBJECT_NAME":"STARLINK-34600","OBJECT_ID":"2025-142D","EPOCH":"2026-03-09T22:14:52.486368","MEAN_MOTION":14.9832918,"ECCENTRICITY":0.00027257,"INCLINATION":70.0002,"RA_OF_ASC_NODE":313.9343,"ARG_OF_PERICENTER":260.4834,"MEAN_ANOMALY":99.6017,"EPHEMERIS_TYPE":0,"CLASSIFICATION_TYPE":"U","NORAD_CAT_ID":64699,"ELEMENT_SET_NO":999,"REV_AT_EPOCH":3951,"BSTAR":0.00045163174,"MEAN_MOTION_DOT":5.3e-5,"MEAN_MOTION_DDOT":0},{"OBJECT_NAME":"IRIDIUM 33 DEB","OBJECT_ID":"1997-051CX","EPOCH":"2026-03-09T17:43:24.588192","MEAN_MOTION":14.98094004,"ECCENTRICITY":0.00015404,"INCLINATION":86.3865,"RA_OF_ASC_NODE":350.5598,"ARG_OF_PERICENTER":95.4765,"MEAN_ANOMALY":329.7207,"EPHEMERIS_TYPE":0,"CLASSIFICATION_TYPE":"U","NORAD_CAT_ID":34088,"ELEMENT_SET_NO":999,"REV_AT_EPOCH":90041,"BSTAR":0.0032183732,"MEAN_MOTION_DOT":0.00038264,"MEAN_MOTION_DDOT":0}]
